IRIDIUM 155             
1 43573U 18061E   25274.13035228  .00000153  00000+0  47480-4 0  9997
2 43573  86.4029 164.9596 0002307  82.1329 278.0128 14.34218550376221
IRIDIUM 154             
1 43574U 18061F   25273.41363405  .00000406  00000+0  13774-3 0  9998
2 43574  86.4035 165.3786 0002064  82.0603 278.0828 14.34220642376175
IRIDIUM 163             
1 43575U 18061G   25274.09229669  .00000140  00000+0  42836-4 0  9994
2 43575  86.4031 165.0195 0002183  88.7708 271.3738 14.34218502376240
IRIDIUM 156             
1 43576U 18061H   25274.06691679  .00000374  00000+0  12635-3 0  9998
2 43576  86.4033 165.0371 0002395  78.0253 282.1211 14.34216363376239
IRIDIUM 164             
1 43577U 18061J   25273.97812986 -.00000031  00000+0 -18262-4 0  9999
2 43577  86.4035 165.1098 0001977  77.2702 282.8715 14.34218004376267
IRIDIUM 159             
1 43578U 18061K   25274.08595336  .00000140  00000+0  42938-4 0  9996
2 43578  86.4029 165.0077 0001980  85.9623 274.1799 14.34218668376249
IRIDIUM 180             
1 43922U 19002A   25274.01568167  .00000038  00000+0  66708-5 0  9998
2 43922  86.3916 101.9600 0002035  91.4802 268.6627 14.34217789351840
IRIDIUM 176             
1 43923U 19002B   25273.59030642  .00000752  00000+0  11539-3 0  9996
2 43923  86.6037 102.1208 0003269  82.8923 277.2666 14.72254141361051
IRIDIUM 168             
1 43924U 19002C   25274.00933924  .00000073  00000+0  18860-4 0  9990
2 43924  86.3915 102.0329 0002166  89.2548 270.8896 14.34217986351828
IRIDIUM 173             
1 43925U 19002D   25274.06642211  .00000019  00000+0 -36130-6 0  9996
2 43925  86.3913 101.9082 0002177  91.4884 268.6561 14.34217690351816
IRIDIUM 169             
1 43926U 19002E   25274.08743763  .00000652  00000+0  20668-3 0  9991
2 43926  86.4228 133.5363 0003442  84.2691 275.8900 14.38613325352976
IRIDIUM 172             
1 43927U 19002F   25273.99031057  .00000087  00000+0  24169-4 0  9990
2 43927  86.3914 101.9473 0002019  95.6342 264.5084 14.34217967351815
IRIDIUM 175             
1 43928U 19002G   25273.38153322  .00002572  00000+0  40375-3 0  9991
2 43928  86.1498  48.7237 0002274  71.9202 288.2262 14.72264163361018
IRIDIUM 171             
1 43929U 19002H   25274.04105126  .00000022  00000+0  66416-6 0  9990
2 43929  86.3924 102.2040 0001956  79.5114 280.6302 14.34217800351817
IRIDIUM 170             
1 43930U 19002J   25274.07226663  .00000746  00000+0  11434-3 0  9995
2 43930  86.6038 101.9218 0002331  86.3950 273.7534 14.72257309361139
IRIDIUM 167             
1 43931U 19002K   25274.03470910  .00000003  00000+0 -58539-5 0  9994
2 43931  86.3916 101.9491 0002185  76.8104 283.3336 14.34217783351818
IRIDIUM 181             
1 56726U 23068S   25274.09185432  .00000745  00000+0  21522-3 0  9997
2 56726  86.4571 165.0540 0001824  70.4964 289.6434 14.43310422125069
IRIDIUM 177             
1 56727U 23068T   25274.00281574  .00001132  00000+0  14549-3 0  9995
2 56727  86.1913  91.8840 0002212  84.1307 276.0166 14.80232450128027
IRIDIUM 174             
1 56728U 23068U   25273.99192318  .00000786  00000+0  12073-3 0  9994
2 56728  86.6044 102.0766 0002476  96.0465 264.1034 14.72266412127880
IRIDIUM 178             
1 56729U 23068V   25273.99191064  .00002951  00000+0  38495-3 0  9994
2 56729  86.6536 133.7013 0002383  72.9992 287.1491 14.80232797128025
IRIDIUM 179             
1 56730U 23068W   25274.05415914  .00002947  00000+0  38427-3 0  9997
2 56730  86.6804 141.8712 0002715  71.7866 288.3650 14.80242024128032
